CHINASAT 1D (ZX 1D)     
1 49505U 21114A   22103.57619689 -.00000339  00000+0  00000+0 0  9995
2 49505   1.6397 280.2660 0002802 170.3206  88.6711  1.00267752  1525
STPSAT-6                
1 49817U 21118A   22107.52941594 -.00000041  00000+0  00000+0 0  9997
2 49817   0.0219  96.0187 0000554 300.0937 248.4738  1.00272147  1304
LDPE-1                  
1 49818U 21118B   22107.47271620 -.00000296  00000+0  00000+0 0  9990
2 49818   0.2904 102.1996 0001480 223.8155 160.7298  1.01191995  1329
2021-123A               
1 50001U 21123A   22104.67085918 -.00000240  00000+0  00000+0 0  9993
2 50001   0.0237 316.6651 0000267 285.8916 346.7699  1.00270890  1262
2021-123B               
1 50002U 21123B   22104.15228001 -.00000319  00000+0  00000+0 0  9996
2 50002   0.0147 273.3766 0001467 205.0877 241.5505  1.00268058  1218
TIANLIAN 2-02           
1 50005U 21124A   22107.58174170 -.00000012  00000+0  00000+0 0  9997
2 50005   2.6976 283.3968 0002585  88.2036 214.5424  1.00274340  1350
SHIYAN 12 01 (SY-12 01) 
1 50321U 21129A   22107.77828953  .00000099  00000+0  00000+0 0  9993
2 50321   0.2749 255.0115 0001777 274.6316  11.6923  1.00190005  1251
SHIYAN 12 02 (SY-12 02) 
1 50322U 21129B   22107.77255469 -.00000193  00000+0  00000+0 0  9996
2 50322   0.2755 255.0469 0001447  31.0442 282.8645  1.00337871  1257
TJS-9                   
1 50574U 21135A   22107.60561995 -.00000294  00000+0  00000+0 0  9990
2 50574   0.0457 310.3598 0004666  90.1998 160.3998  1.00273057  1200
GOES 18                 
1 51850U 22021A   22104.57619094 -.00000181  00000+0  00000+0 0  9995
2 51850   0.0186 143.6434 0000640 324.8635 212.2800  1.00269914   515
